1 43138U 18004AD  18202.11944752 +.00001363 +00000-0 +60935-4 0  9998
2 43138 097.5318 264.9586 0008986 353.3731 006.7385 15.23034209028884
1 43138U 18004AD  18202.71074976 +.00001379 +00000-0 +61640-4 0  9997
2 43138 097.5318 265.5517 0008922 351.2444 008.8635 15.23036057028977
1 43138U 18004AD  18203.17065082  .00001382  00000-0  61765-4 0  9998
2 43138  97.5317 266.0130 0008881 349.5581  10.5470 15.23037513 29043
1 43138U 18004AD  18203.23635106 +.00001398 +00000-0 +62452-4 0  9996
2 43138 097.5317 266.0789 0008872 349.3148 010.7898 15.23037751029051
1 43138U 18004AD  18203.76195221 +.00001419 +00000-0 +63317-4 0  9998
2 43138 097.5317 266.6060 0008821 347.4193 012.6821 15.23039308029138
1 43138U 18004AD  18204.81315284 +.00001454 +00000-0 +64804-4 0  9999
2 43138 097.5317 267.6604 0008717 343.5156 016.5795 15.23042388029295
1 43138U 18004AD  18205.60155189 +.00001450 +00000-0 +64611-4 0  9995
2 43138 097.5317 268.4511 0008631 340.5623 019.5283 15.23044590029418
1 43138U 18004AD  18205.60155189 +.00001450 +00000-0 +64611-4 0  9995
2 43138 097.5317 268.4511 0008631 340.5623 019.5283 15.23044590029418
1 43138U 18004AD  18206.71844880 +.00001348 +00000-0 +60317-4 0  9996
2 43138 097.5316 269.5713 0008522 336.3304 023.7539 15.23047172029589
1 43138U 18004AD  18207.63824516 +.00001131 +00000-0 +51087-4 0  9996
2 43138 097.5316 270.4939 0008440 332.7903 027.2890 15.23048429029725
1 43138U 18004AD  18208.75513894 +.00001021 +00000-0 +46400-4 0  9995
2 43138 097.5315 271.6141 0008344 328.4869 031.5867 15.23050616029899
1 43138U 18004AD  18209.14933635  .00000984  00000-0  44843-4 0  9994
2 43138  97.5314 272.0094 0008312 326.9389  33.1326 15.23051351 29957
1 43138U 18004AD  18209.74063213 +.00000957 +00000-0 +43682-4 0  9996
2 43138 097.5314 272.6025 0008257 324.6221 035.4467 15.23052550030040
1 43138U 18004AD  18210.72612400 +.00000979 +00000-0 +44620-4 0  9991
2 43138 097.5312 273.5909 0008177 320.7193 039.3449 15.23054879030190
1 43138U 18004AD  18211.64591508 +.00001029 +00000-0 +46752-4 0  9993
2 43138 097.5311 274.5133 0008111 317.0266 043.0336 15.23057244030339
1 43138U 18004AD  18211.97441170  .00000990  00000-0  45079-4 0  9995
2 43138  97.5310 274.8428 0008089 315.6850  44.3738 15.23057725 30384
1 43138U 18004AD  18212.76280266 +.00001023 +00000-0 +46508-4 0  9996
2 43138 097.5309 275.6334 0008035 312.4987 047.5570 15.23059679030507
1 43138U 18004AD  18213.15699785  .00001030  00000-0  46784-4 0  9994
2 43138  97.5309 276.0288 0008015 310.9028  49.1513 15.23060577 30567
1 43138U 18004AD  18213.74829053 +.00000978 +00000-0 +44586-4 0  9990
2 43138 097.5308 276.6218 0007973 308.4148 051.6372 15.23061470030656
1 43138U 18004AD  18214.20818385  .00001148  00000-0  51774-4 0  9995
2 43138  97.5308 277.0830 0007948 306.5017  53.5487 15.23063512 30722
1 43138U 18004AD  18214.73377657 +.00001077 +00000-0 +48766-4 0  9993
2 43138 097.5308 277.6101 0007909 304.3242 055.7245 15.23064235030800
1 43138U 18004AD  18215.71926146  .00001148  00000-0  51770-4 0  9993
2 43138  97.5307 278.5984 0007861 300.2108  59.8349 15.23066856 30958
1 43138U 18004AD  18216.24485274 +.00001146 +00000-0 +51691-4 0  9994
2 43138 097.5306 279.1255 0007843 298.0015 062.0427 15.23068094031035
1 43138U 18004AD  18216.63904584 +.00001155 +00000-0 +52069-4 0  9997
2 43138 097.5306 279.5209 0007821 296.3524 063.6909 15.23069117031095
1 43138U 18004AD  18217.16463629  .00001141  00000-0  51470-4 0  9996
2 43138  97.5306 280.0480 0007806 294.1881  65.8539 15.23070324 31172
1 43138U 18004AD  18217.42743173 +.00001133 +00000-0 +51163-4 0  9990
2 43138 097.5306 280.3115 0007790 293.0574 066.9840 15.23070780031217
1 43138U 18004AD  18217.75592566 +.00001106 +00000-0 +49979-4 0  9996
2 43138 097.5305 280.6409 0007780 291.7172 068.3235 15.23071351031267
1 43138U 18004AD  18218.21581692  .00001096  00000-0  49553-4 0  9992
2 43138  97.5305 281.1022 0007768 289.7549  70.2849 15.23072283 31331
1 43138U 18004AD  18218.74140641 +.00001107 +00000-0 +50048-4 0  9999
2 43138 097.5305 281.6293 0007750 287.5149 072.5240 15.23073526031419
1 43138U 18004AD  18219.59548861  .00001035  00000-0  47001-4 0  9994
2 43138  97.5304 282.4858 0007728 283.8322  76.2054 15.23075057 31540
1 43138U 18004AD  18220.64666530  .00001054  00000-0  47766-4 0  9995
2 43138  97.5303 283.5400 0007712 279.3453  80.6911 15.23077516 31703
1 43138U 18004AD  18221.76353881  .00001077  00000-0  48742-4 0  9991
2 43138  97.5302 284.6600 0007704 274.6324  85.4032 15.23080114 31875
1 43138U 18004AD  18222.94610898 +.00001051 +00000-0 +47653-4 0  9998
2 43138 097.5301 285.8458 0007702 269.5243 090.5111 15.23082504032050
1 43138U 18004AD  18223.20890199 +.00001118 +00000-0 +50478-4 0  9995
2 43138 097.5300 286.1094 0007706 268.4200 091.6154 15.23083477032097
1 43138U 18004AD  18223.73448778 +.00001111 +00000-0 +50204-4 0  9995
2 43138 097.5300 286.6364 0007716 266.1593 093.8761 15.23084643032176
1 43138U 18004AD  18224.12867678 +.00001126 +00000-0 +50833-4 0  9997
2 43138 097.5300 287.0317 0007726 264.4153 095.6203 15.23085649032238
1 43138U 18004AD  18224.71996005 +.00001151 +00000-0 +51881-4 0  9991
2 43138 097.5299 287.6247 0007735 261.8590 098.1769 15.23087153032326
1 43138U 18004AD  18225.70543072 +.00001110 +00000-0 +50139-4 0  9993
2 43138 097.5298 288.6128 0007759 257.6553 102.3815 15.23089345032473
1 43138U 18004AD  18226.75659828 +.00001096 +00000-0 +49536-4 0  9998
2 43138 097.5298 289.6669 0007794 253.3085 106.7296 15.23091649032635
1 43138U 18004AD  18227.74206627  .00001159  00000-0  52226-4 0  9993
2 43138  97.5297 290.6551 0007825 249.2144 110.8254 15.23094262 32781
1 43138U 18004AD  18228.72753165 +.00001302 +00000-0 +58261-4 0  9991
2 43138 097.5295 291.6433 0007867 245.1144 114.9275 15.23097719032935
1 43138U 18004AD  18229.12171739  .00001306  00000-0  58436-4 0  9995
2 43138  97.5295 292.0386 0007890 243.4923 116.5504 15.23098826 32998
1 43138U 18004AD  18229.84439074 +.00001272 +00000-0 +57003-4 0  9994
2 43138 097.5294 292.7633 0007931 240.4677 119.5769 15.23100596033106
1 43138U 18004AD  18230.17287827  .00001245  00000-0  55860-4 0  9998
2 43138  97.5293 293.0927 0007959 239.1896 120.8557 15.23101379 33158
1 43138U 18004AD  18230.76415494 +.00001397 +00000-0 +62265-4 0  9991
2 43138 097.5293 293.6856 0007985 236.7782 123.2690 15.23103942033244
1 43138U 18004AD  18231.42112875  .00001457  00000-0  64827-4 0  9995
2 43138  97.5293 294.3443 0008030 234.0585 125.9907 15.23106069 33342
1 43138U 18004AD  18231.94670717 +.00001401 +00000-0 +62449-4 0  9993
2 43138 097.5292 294.8713 0008067 231.9087 128.1422 15.23107255033423
1 43138U 18004AD  18232.60367884 +.00001522 +00000-0 +67555-4 0  9992
2 43138 097.5292 295.5300 0008118 229.1994 130.8539 15.23110027033527
1 43138U 18004AD  18232.73507312  .00001515  00000-0  67273-4 0  9997
2 43138  97.5292 295.6618 0008126 228.6681 131.3857 15.23110398 33548
1 43138U 18004AD  18232.86646740 +.00001502 +00000-0 +66734-4 0  9997
2 43138 097.5292 295.7935 0008139 228.1335 131.9207 15.23110718033569
1 43138U 18004AD  18233.06355868 +.00001493 +00000-0 +66321-4 0  9999
2 43138 097.5291 295.9911 0008157 227.3359 132.7191 15.23111301033594
1 43138U 18004AD  18234.64028722  .00001288  00000-0  57620-4 0  9994
2 43138  97.5290 297.5721 0008282 220.9924 139.0690 15.23115018 33836
1 43138U 18004AD  18235.42865009 +.00001224 +00000-0 +54903-4 0  9999
2 43138 097.5290 298.3625 0008342 217.8993 142.1657 15.23116857033959
1 43138U 18004AD  18235.62574062 +.00001210 +00000-0 +54345-4 0  9992
2 43138 097.5290 298.5601 0008358 217.1117 142.9543 15.23117345033981
1 43138U 18004AD  18236.15131514  .00001173  00000-0  52771-4 0  9991
2 43138  97.5289 299.0871 0008398 215.0776 144.9908 15.23118527 34066
1 43138U 18004AD  18236.80828262 +.00001267 +00000-0 +56726-4 0  9994
2 43138 097.5288 299.7459 0008448 212.5575 147.5142 15.23120733034161
1 43138U 18004AD  18237.13676600 +.00001265 +00000-0 +56649-4 0  9990
2 43138 097.5287 300.0752 0008482 211.2860 148.7873 15.23121612034210
1 43138U 18004AD  18237.72803623  .00001184  00000-0  53201-4 0  9993
2 43138  97.5287 300.6681 0008539 208.9782 151.0981 15.23122585 34303
1 43138U 18004AD  18238.38500173 +.00001267 +00000-0 +56708-4 0  9997
2 43138 097.5286 301.3268 0008599 206.5067 153.5731 15.23124803034403
1 43138U 18004AD  18238.84487186  .00002162  00000-0  94623-4 0  9999
2 43138  97.5285 301.7879 0008629 204.8965 155.1856 15.23132578 34477
1 43138U 18004AD  18239.23905133 +.00002483 +00000-0 +10819-3 0  9990
2 43138 097.5284 302.1833 0008700 203.1974 156.8871 15.23133204034532
1 43138U 18004AD  18239.76461975 +.00002951 +00000-0 +12799-3 0  9998
2 43138 097.5282 302.7103 0008742 201.2454 158.8420 15.23137629034610
1 43138U 18004AD  18240.15879512  .00002344  00000-0  10228-3 0  9994
2 43138  97.5281 303.1055 0008793 199.7993 160.2904 15.23138343 34679
1 43138U 18004AD  18240.81575260 +.00002768 +00000-0 +12019-3 0  9990
2 43138 097.5278 303.7640 0008858 197.4032 162.6902 15.23144034034771
1 43138U 18004AD  18241.40701319  .00002422  00000-0  10557-3 0  9994
2 43138  97.5278 304.3569 0008921 195.2766 164.8202 15.23146783 34869
1 43138U 18004AD  18241.86688293 +.00001693 +00000-0 +74729-4 0  9990
2 43138 097.5276 304.8179 0008973 193.5903 166.5094 15.23146595034937
1 43138U 18004AD  18242.12966502 +.00001607 +00000-0 +71060-4 0  9992
2 43138 097.5275 305.0814 0009001 192.6491 167.4521 15.23147634034974
1 43138U 18004AD  18242.72092453  .00001340  00000-0  59766-4 0  9996
2 43138  97.5274 305.6741 0009067 190.5178 169.5870 15.23149098 35066
1 43138U 18004AD  18242.91801089 +.00001326 +00000-0 +59167-4 0  9999
2 43138 097.5273 305.8717 0009087 189.8398 170.2662 15.23149632035092
1 43138U 18004AD  18243.83774782  .00001460  00000-0  64829-4 0  9990
2 43138  97.5277 306.7936 0009150 186.8369 173.2744 15.23151236 35238
1 43138U 18004AD  18243.90344199 +.00001231 +00000-0 +55144-4 0  9999
2 43138 097.5272 306.8597 0009192 186.4317 173.6803 15.23152198035241
